GEOSCAN 3 (RS92S3)      
1 64893U 25155T   26201.15821023  .00010107  00000+0  28652-3 0  9995
2 64893  97.4559 171.4489 0008385  74.4074 285.8095 15.36414088 85915
INNOSAT 3 (RS92S0)      
1 64894U 25155U   26201.27871290  .00025605  00000+0  52394-3 0  9999
2 64894  97.4504 173.6278 0007923  79.2492 280.9648 15.46069611 86077
KNACKSAT-2              
1 67683U 98067XZ  26201.31105333  .00034825  00000+0  38340-3 0  9992
2 67683  51.6271 127.4977 0008007 345.8818  14.1951 15.62761306 25457
