OBJECT_NAME,OBJECT_ID,EPOCH,MEAN_MOTION,ECCENTRICITY,INCLINATION,RA_OF_ASC_NODE,ARG_OF_PERICENTER,MEAN_ANOMALY,EPHEMERIS_TYPE,CLASSIFICATION_TYPE,NORAD_CAT_ID,ELEMENT_SET_NO,REV_AT_EPOCH,BSTAR,MEAN_MOTION_DOT,MEAN_MOTION_DDOT
GEOSCAN 3 (RS92S3),2025-155T,2026-07-20T03:47:49.363872,15.36414088,.00083855,97.4559,171.4489,74.4074,285.8095,0,U,64893,999,8591,.28651731E-3,.10107E-3,0
INNOSAT 3 (RS92S0),2025-155U,2026-07-20T06:41:20.794560,15.46069611,.00079238,97.4504,173.6278,79.2492,280.9648,0,U,64894,999,8607,.52394237E-3,.25605E-3,0
KNACKSAT-2,1998-067XZ,2026-07-20T07:27:55.007712,15.62761306,.00080072,51.6271,127.4977,345.8818,14.1951,0,U,67683,999,2545,.38340228E-3,.34825E-3,0
